COSMOS 2426 (717)       
1 29671U 06062B   20009.24202382  .00000035  00000-0  10000-3 0  9995
2 29671  65.0290 273.3266 0019722 172.6496   8.4110  2.12962283101487
COSMOS 2433 (720)       
1 32275U 07052A   20008.91703503 -.00000011  00000-0  10000-3 0  9998
2 32275  65.9288  34.2715 0005472 254.8735  95.1455  2.13104414 94982
COSMOS 2432 (719)       
1 32276U 07052B   20008.63836447 -.00000012  00000-0  10000-3 0  9993
2 32276  65.9413  34.3671 0011297 317.8168 128.9637  2.13103616 94987
COSMOS 2434 (721)       
1 32393U 07065A   20009.16295544  .00000037  00000-0  00000+0 0  9994
2 32393  64.6341 271.9205 0002916  79.4614 346.6334  2.13103015 93705
COSMOS 2436 (723)       
1 32395U 07065C   20008.79586023  .00000034  00000-0  10000-3 0  9991
2 32395  64.6452 271.9824 0015365 340.5252 282.6561  2.13280886 93623
COSMOS 2456 (730)       
1 36111U 09070A   20008.71862091  .00000048  00000-0  00000+0 0  9993
2 36111  64.2150 151.5936 0002679 349.6554 268.9280  2.13102816 78354
COSMOS 2457 (733)       
1 36112U 09070B   20008.68119197  .00000048  00000-0  00000-0 0  9993
2 36112  64.1968 151.4925 0006683 148.9104 205.0032  2.13101423 78358
COSMOS 2459 (731)       
1 36400U 10007A   20009.34979970 -.00000012  00000-0  10000-3 0  9998
2 36400  65.8327  33.2484 0025570 344.2177 192.6768  2.13105069 76725
COSMOS 2461 (735)       
1 36401U 10007B   20008.71892175 -.00000012  00000-0  10000-3 0  9990
2 36401  65.8253  33.2399 0004394  56.1383 266.6874  2.13101946 76706
COSMOS 2460 (732)       
1 36402U 10007C   20009.12162265 -.00000012  00000-0  10000-3 0  9997
2 36402  65.8151  33.1884 0002529 257.3348  53.8731  2.13101402 76712
COSMOS 2464 (736)       
1 37139U 10041C   20009.13539106  .00000037  00000-0  00000+0 0  9997
2 37139  64.2367 271.4425 0026973  10.1523 259.5794  2.13100718 72785
COSMOS 2474 (742)       
1 37829U 11055A   20008.91847089  .00000050  00000-0  00000+0 0  9991
2 37829  64.5352 152.5453 0008113 240.7501  26.6248  2.13101847 64356
COSMOS 2476 (744)       
1 37867U 11064A   20008.85226458  .00000050  00000-0  00000+0 0  9997
2 37867  64.5157 152.5946 0017682 233.5474  29.2249  2.13101845 63704
COSMOS 2477 (745)       
1 37868U 11064B   20009.22671598  .00000049  00000-0  00000+0 0  9997
2 37868  64.5240 152.6367 0015237 234.1470 134.4857  2.13101722 63677
COSMOS 2475 (743)       
1 37869U 11064C   20008.64921706  .00000051  00000-0  00000+0 0  9995
2 37869  64.5322 152.6561 0018757 260.1869 342.6858  2.13101874 63667
COSMOS 2485 (747)       
1 39155U 13019A   20009.38674848  .00000049  00000-0  00000+0 0  9998
2 39155  64.6841 152.8110 0018426 228.7688 128.6967  2.13101859 52189
COSMOS 2492 (754)       
1 39620U 14012A   20009.40609347 -.00000012  00000-0  10000-3 0  9990
2 39620  65.7058  32.9844 0014858 316.5079  90.8887  2.13103366 45149
COSMOS 2500 (755)       
1 40001U 14032A   20008.75533079 -.00000013  00000-0  00000-0 0  9999
2 40001  65.6461  32.9324 0008163 219.8990 269.1620  2.13102517 43346
COSMOS 2501 (702K)      
1 40315U 14075A   20008.73032515  .00000032  00000-0  00000+0 0  9990
2 40315  63.9544 272.4607 0015563 209.5473  56.5958  2.13098446 39742
COSMOS 2514 (751)       
1 41330U 16008A   20009.38201016 -.00000013  00000-0  00000+0 0  9992
2 41330  65.4486  32.8251 0011945 223.9507 207.9963  2.13103022 30525
COSMOS 2516 (753)       
1 41554U 16032A   20008.86865227  .00000033  00000-0  00000+0 0  9990
2 41554  64.1783 272.4813 0011703 222.4827  66.2847  2.13101797 28112
COSMOS 2522 (752)       
1 42939U 17055A   20008.92995623  .00000033  00000-0  00000+0 0  9995
2 42939  64.4098 272.6124 0007319 256.5415 305.7991  2.13102083 17879
COSMOS 2527 (756)       
1 43508U 18053A   20008.61574502  .00000051  00000-0  00000-0 0  9993
2 43508  64.8472 152.6502 0006059 215.9132 136.9497  2.13102567 12152
COSMOS 2529 (757)       
1 43687U 18086A   20008.50315068  .00000030  00000-0  00000+0 0  9991
2 43687  64.6222 272.7011 0010240 277.2562 273.2924  2.13101959  9177
COSMOS 2534 (758)       
1 44299U 19030A   20007.88447128  .00000025  00000-0  00000-0 0  9999
2 44299  64.6928 272.5261 0013823 293.8499 277.1956  2.13101928  4807
